{
    "links": {
        "self": "http://www.neowsapp.com/rest/v1/neo/3791317?api_key=iIulBulltgU6a56xZRHN4H3l9WmuAYTsLGpBGhQ2"
    },
    "id": "3791317",
    "neo_reference_id": "3791317",
    "name": "(2017 WG29)",
    "designation": "2017 WG29",
    "nasa_jpl_url": "http://ssd.jpl.nasa.gov/sbdb.cgi?sstr=3791317",
    "absolute_magnitude_h": 26.285,
    "estimated_diameter": {
        "kilometers": {
            "estimated_diameter_min": 0.0147080459,
            "estimated_diameter_max": 0.0328881905
        },
        "meters": {
            "estimated_diameter_min": 14.708045903,
            "estimated_diameter_max": 32.8881904552
        },
        "miles": {
            "estimated_diameter_min": 0.0091391532,
            "estimated_diameter_max": 0.0204357678
        },
        "feet": {
            "estimated_diameter_min": 48.2547453202,
            "estimated_diameter_max": 107.900890773
        }
    },
    "is_potentially_hazardous_asteroid": false,
    "close_approach_data": [
        {
            "close_approach_date": "2017-11-20",
            "close_approach_date_full": "2017-Nov-20 01:38",
            "epoch_date_close_approach": 1511141880000,
            "relative_velocity": {
                "kilometers_per_second": "15.6014099103",
                "kilometers_per_hour": "56165.075677138",
                "miles_per_hour": "34898.7938283861"
            },
            "miss_distance": {
                "astronomical": "0.0172549483",
                "lunar": "6.7121748887",
                "kilometers": "2581303.512640121",
                "miles": "1603947.6267148298"
            },
            "orbiting_body": "Earth"
        }
    ],
    "orbital_data": {
        "orbit_id": "1",
        "orbit_determination_date": "2017-12-15 06:26:29",
        "first_observation_date": "2017-11-27",
        "last_observation_date": "2017-11-28",
        "data_arc_in_days": 1,
        "observations_used": 14,
        "orbit_uncertainty": "9",
        "minimum_orbit_intersection": ".00734494",
        "jupiter_tisserand_invariant": "3.759",
        "epoch_osculation": "2458084.5",
        "eccentricity": ".5862772715728755",
        "semi_major_axis": "1.865771535807262",
        "inclination": ".9530381205415019",
        "ascending_node_longitude": "30.06365895905922",
        "orbital_period": "930.8637574397678",
        "perihelion_distance": ".7719120904158469",
        "perihelion_argument": "320.4385234371583",
        "aphelion_distance": "2.959630981198677",
        "perihelion_time": "2458034.323866379182",
        "mean_anomaly": "19.40499665942068",
        "mean_motion": ".3867375833711025",
        "equinox": "J2000",
        "orbit_class": {
            "orbit_class_type": "APO",
            "orbit_class_description": "Near-Earth asteroid orbits which cross the Earth’s orbit similar to that of 1862 Apollo",
            "orbit_class_range": "a (semi-major axis) > 1.0 AU; q (perihelion) < 1.017 AU"
        }
    },
    "is_sentry_object": false
}